[{"CCSDS_OMM_VERS":"2.0","COMMENT":"GENERATED VIA SPACE-TRACK.ORG API","CREATION_DATE":"2024-02-16T17:39:09","ORIGINATOR":"18 SPCS","OBJECT_NAME":"NAVSTAR 60 (USA 196)","OBJECT_ID":"2007-047A","CENTER_NAME":"EARTH","REF_FRAME":"TEME","TIME_SYSTEM":"UTC","MEAN_ELEMENT_THEORY":"SGP4","EPOCH":"2024-02-16T03:40:52.306752","MEAN_MOTION":"2.00570783","ECCENTRICITY":"0.01521590","INCLINATION":"53.5419","RA_OF_ASC_NODE":"115.3063","ARG_OF_PERICENTER":"73.7646","MEAN_ANOMALY":"287.9555","EPHEMERIS_TYPE":"0","CLASSIFICATION_TYPE":"U","NORAD_CAT_ID":"32260","ELEMENT_SET_NO":"999","REV_AT_EPOCH":"11972","BSTAR":"0.00000000000000","MEAN_MOTION_DOT":"-0.00000039","MEAN_MOTION_DDOT":"0.0000000000000","SEMIMAJOR_AXIS":"26559.714","PERIOD":"717.951","APOAPSIS":"20585.709","PERIAPSIS":"19777.449","OBJECT_TYPE":"PAYLOAD","RCS_SIZE":"LARGE","COUNTRY_CODE":"US","LAUNCH_DATE":"2007-10-17","SITE":"AFETR","DECAY_DATE":null,"FILE":"4190317","GP_ID":"249398413","TLE_LINE0":"0 NAVSTAR 60 (USA 196)","TLE_LINE1":"1 32260U 07047A   24047.15338318 -.00000039  00000-0  00000-0 0  9993","TLE_LINE2":"2 32260  53.5419 115.3063 0152159  73.7646 287.9555  2.00570783119720"},{"CCSDS_OMM_VERS":"2.0","COMMENT":"GENERATED VIA SPACE-TRACK.ORG API","CREATION_DATE":"2024-02-16T17:39:09","ORIGINATOR":"18 SPCS","OBJECT_NAME":"NAVSTAR 80 (USA 309)","OBJECT_ID":"2020-078A","CENTER_NAME":"EARTH","REF_FRAME":"TEME","TIME_SYSTEM":"UTC","MEAN_ELEMENT_THEORY":"SGP4","EPOCH":"2024-02-16T04:26:42.666720","MEAN_MOTION":"2.00561430","ECCENTRICITY":"0.00403520","INCLINATION":"54.2329","RA_OF_ASC_NODE":"245.3633","ARG_OF_PERICENTER":"193.2505","MEAN_ANOMALY":"160.7048","EPHEMERIS_TYPE":"0","CLASSIFICATION_TYPE":"U","NORAD_CAT_ID":"46826","ELEMENT_SET_NO":"999","REV_AT_EPOCH":"2441","BSTAR":"0.00000000000000","MEAN_MOTION_DOT":"0.00000063","MEAN_MOTION_DDOT":"0.0000000000000","SEMIMAJOR_AXIS":"26560.540","PERIOD":"717.985","APOAPSIS":"20289.582","PERIAPSIS":"20075.228","OBJECT_TYPE":"PAYLOAD","RCS_SIZE":"LARGE","COUNTRY_CODE":"US","LAUNCH_DATE":"2020-11-05","SITE":"AFETR","DECAY_DATE":null,"FILE":"4190317","GP_ID":"249407599","TLE_LINE0":"0 NAVSTAR 80 (USA 309)","TLE_LINE1":"1 46826U 20078A   24047.18521605  .00000063  00000-0  00000-0 0  9997","TLE_LINE2":"2 46826  54.2329 245.3633 0040352 193.2505 160.7048  2.00561430 24416"},{"CCSDS_OMM_VERS":"2.0","COMMENT":"GENERATED VIA SPACE-TRACK.ORG API","CREATION_DATE":"2024-02-16T14:46:16","ORIGINATOR":"18 SPCS","OBJECT_NAME":"NAVSTAR 75 (USA 265)","OBJECT_ID":"2015-062A","CENTER_NAME":"EARTH","REF_FRAME":"TEME","TIME_SYSTEM":"UTC","MEAN_ELEMENT_THEORY":"SGP4","EPOCH":"2024-02-16T04:55:58.043424","MEAN_MOTION":"2.00562280","ECCENTRICITY":"0.00947200","INCLINATION":"56.3002","RA_OF_ASC_NODE":"63.8537","ARG_OF_PERICENTER":"224.7815","MEAN_ANOMALY":"134.4905","EPHEMERIS_TYPE":"0","CLASSIFICATION_TYPE":"U","NORAD_CAT_ID":"41019","ELEMENT_SET_NO":"999","REV_AT_EPOCH":"6074","BSTAR":"0.00000000000000","MEAN_MOTION_DOT":"-0.00000044","MEAN_MOTION_DDOT":"0.0000000000000","SEMIMAJOR_AXIS":"26560.465","PERIOD":"717.981","APOAPSIS":"20433.910","PERIAPSIS":"19930.749","OBJECT_TYPE":"PAYLOAD","RCS_SIZE":"LARGE","COUNTRY_CODE":"US","LAUNCH_DATE":"2015-10-31","SITE":"AFETR","DECAY_DATE":null,"FILE":"4190216","GP_ID":"249385231","TLE_LINE0":"0 NAVSTAR 75 (USA 265)","TLE_LINE1":"1 41019U 15062A   24047.20553291 -.00000044  00000-0  00000+0 0  9991","TLE_LINE2":"2 41019  56.3002  63.8537 0094720 224.7815 134.4905  2.00562280 60744"},{"CCSDS_OMM_VERS":"2.0","COMMENT":"GENERATED VIA SPACE-TRACK.ORG API","CREATION_DATE":"2024-02-16T17:39:09","ORIGINATOR":"18 SPCS","OBJECT_NAME":"NAVSTAR 75 (USA 265)","OBJECT_ID":"2015-062A","CENTER_NAME":"EARTH","REF_FRAME":"TEME","TIME_SYSTEM":"UTC","MEAN_ELEMENT_THEORY":"SGP4","EPOCH":"2024-02-16T04:55:58.043424","MEAN_MOTION":"2.00562280","ECCENTRICITY":"0.00947200","INCLINATION":"56.3002","RA_OF_ASC_NODE":"63.8537","ARG_OF_PERICENTER":"224.7815","MEAN_ANOMALY":"134.4905","EPHEMERIS_TYPE":"0","CLASSIFICATION_TYPE":"U","NORAD_CAT_ID":"41019","ELEMENT_SET_NO":"999","REV_AT_EPOCH":"6074","BSTAR":"0.00000000000000","MEAN_MOTION_DOT":"-0.00000044","MEAN_MOTION_DDOT":"0.0000000000000","SEMIMAJOR_AXIS":"26560.465","PERIOD":"717.981","APOAPSIS":"20433.910","PERIAPSIS":"19930.749","OBJECT_TYPE":"PAYLOAD","RCS_SIZE":"LARGE","COUNTRY_CODE":"US","LAUNCH_DATE":"2015-10-31","SITE":"AFETR","DECAY_DATE":null,"FILE":"4190317","GP_ID":"249404182","TLE_LINE0":"0 NAVSTAR 75 (USA 265)","TLE_LINE1":"1 41019U 15062A   24047.20553291 -.00000044  00000-0  00000-0 0  9992","TLE_LINE2":"2 41019  56.3002  63.8537 0094720 224.7815 134.4905  2.00562280 60744"},{"CCSDS_OMM_VERS":"2.0","COMMENT":"GENERATED VIA SPACE-TRACK.ORG API","CREATION_DATE":"2024-02-16T17:39:09","ORIGINATOR":"18 SPCS","OBJECT_NAME":"NAVSTAR 61 (USA 199)","OBJECT_ID":"2007-062A","CENTER_NAME":"EARTH","REF_FRAME":"TEME","TIME_SYSTEM":"UTC","MEAN_ELEMENT_THEORY":"SGP4","EPOCH":"2024-02-16T05:04:19.401024","MEAN_MOTION":"2.00567368","ECCENTRICITY":"0.00247790","INCLINATION":"55.7399","RA_OF_ASC_NODE":"308.2087","ARG_OF_PERICENTER":"147.5900","MEAN_ANOMALY":"21.9128","EPHEMERIS_TYPE":"0","CLASSIFICATION_TYPE":"U","NORAD_CAT_ID":"32384","ELEMENT_SET_NO":"999","REV_AT_EPOCH":"11842","BSTAR":"0.00000000000000","MEAN_MOTION_DOT":"-0.00000068","MEAN_MOTION_DDOT":"0.0000000000000","SEMIMAJOR_AXIS":"26560.016","PERIOD":"717.963","APOAPSIS":"20247.694","PERIAPSIS":"20116.067","OBJECT_TYPE":"PAYLOAD","RCS_SIZE":"LARGE","COUNTRY_CODE":"US","LAUNCH_DATE":"2007-12-20","SITE":"AFETR","DECAY_DATE":null,"FILE":"4190317","GP_ID":"249398449","TLE_LINE0":"0 NAVSTAR 61 (USA 199)","TLE_LINE1":"1 32384U 07062A   24047.21133566 -.00000068  00000-0  00000-0 0  9994","TLE_LINE2":"2 32384  55.7399 308.2087 0024779 147.5900  21.9128  2.00567368118429"},{"CCSDS_OMM_VERS":"2.0","COMMENT":"GENERATED VIA SPACE-TRACK.ORG API","CREATION_DATE":"2024-02-17T00:36:16","ORIGINATOR":"18 SPCS","OBJECT_NAME":"NAVSTAR 67 (USA 239)","OBJECT_ID":"2012-053A","CENTER_NAME":"EARTH","REF_FRAME":"TEME","TIME_SYSTEM":"UTC","MEAN_ELEMENT_THEORY":"SGP4","EPOCH":"2024-02-16T05:51:37.634112","MEAN_MOTION":"2.00556550","ECCENTRICITY":"0.01492920","INCLINATION":"53.5143","RA_OF_ASC_NODE":"178.4514","ARG_OF_PERICENTER":"54.9682","MEAN_ANOMALY":"306.3917","EPHEMERIS_TYPE":"0","CLASSIFICATION_TYPE":"U","NORAD_CAT_ID":"38833","ELEMENT_SET_NO":"999","REV_AT_EPOCH":"8324","BSTAR":"0.00000000000000","MEAN_MOTION_DOT":"0.00000028","MEAN_MOTION_DDOT":"0.0000000000000","SEMIMAJOR_AXIS":"26560.971","PERIOD":"718.002","APOAPSIS":"20579.370","PERIAPSIS":"19786.302","OBJECT_TYPE":"PAYLOAD","RCS_SIZE":"LARGE","COUNTRY_CODE":"US","LAUNCH_DATE":"2012-10-04","SITE":"AFETR","DECAY_DATE":null,"FILE":"4190326","GP_ID":"249416762","TLE_LINE0":"0 NAVSTAR 67 (USA 239)","TLE_LINE1":"1 38833U 12053A   24047.24418558  .00000028  00000-0  00000+0 0  9999","TLE_LINE2":"2 38833  53.5143 178.4514 0149292  54.9682 306.3917  2.00556550 83243"},{"CCSDS_OMM_VERS":"2.0","COMMENT":"GENERATED VIA SPACE-TRACK.ORG API","CREATION_DATE":"2024-02-17T03:47:55","ORIGINATOR":"18 SPCS","OBJECT_NAME":"NAVSTAR 67 (USA 239)","OBJECT_ID":"2012-053A","CENTER_NAME":"EARTH","REF_FRAME":"TEME","TIME_SYSTEM":"UTC","MEAN_ELEMENT_THEORY":"SGP4","EPOCH":"2024-02-16T05:51:37.634112","MEAN_MOTION":"2.00556550","ECCENTRICITY":"0.01492920","INCLINATION":"53.5143","RA_OF_ASC_NODE":"178.4514","ARG_OF_PERICENTER":"54.9682","MEAN_ANOMALY":"306.3917","EPHEMERIS_TYPE":"0","CLASSIFICATION_TYPE":"U","NORAD_CAT_ID":"38833","ELEMENT_SET_NO":"999","REV_AT_EPOCH":"8235","BSTAR":"0.00000000000000","MEAN_MOTION_DOT":"0.00000028","MEAN_MOTION_DDOT":"0.0000000000000","SEMIMAJOR_AXIS":"26560.971","PERIOD":"718.002","APOAPSIS":"20579.370","PERIAPSIS":"19786.302","OBJECT_TYPE":"PAYLOAD","RCS_SIZE":"LARGE","COUNTRY_CODE":"US","LAUNCH_DATE":"2012-10-04","SITE":"AFETR","DECAY_DATE":null,"FILE":"4190592","GP_ID":"249436336","TLE_LINE0":"0 NAVSTAR 67 (USA 239)","TLE_LINE1":"1 38833U 12053A   24047.24418558  .00000028  00000-0  00000-0 0  9990","TLE_LINE2":"2 38833  53.5143 178.4514 0149292  54.9682 306.3917  2.00556550 82354"},{"CCSDS_OMM_VERS":"2.0","COMMENT":"GENERATED VIA SPACE-TRACK.ORG API","CREATION_DATE":"2024-02-16T17:39:09","ORIGINATOR":"18 SPCS","OBJECT_NAME":"NAVSTAR 67 (USA 239)","OBJECT_ID":"2012-053A","CENTER_NAME":"EARTH","REF_FRAME":"TEME","TIME_SYSTEM":"UTC","MEAN_ELEMENT_THEORY":"SGP4","EPOCH":"2024-02-16T05:51:37.650528","MEAN_MOTION":"2.00556538","ECCENTRICITY":"0.01492970","INCLINATION":"53.5143","RA_OF_ASC_NODE":"178.4514","ARG_OF_PERICENTER":"54.9739","MEAN_ANOMALY":"306.3861","EPHEMERIS_TYPE":"0","CLASSIFICATION_TYPE":"U","NORAD_CAT_ID":"38833","ELEMENT_SET_NO":"999","REV_AT_EPOCH":"8235","BSTAR":"0.00000000000000","MEAN_MOTION_DOT":"0.00000028","MEAN_MOTION_DDOT":"0.0000000000000","SEMIMAJOR_AXIS":"26560.972","PERIOD":"718.002","APOAPSIS":"20579.384","PERIAPSIS":"19786.289","OBJECT_TYPE":"PAYLOAD","RCS_SIZE":"LARGE","COUNTRY_CODE":"US","LAUNCH_DATE":"2012-10-04","SITE":"AFETR","DECAY_DATE":null,"FILE":"4190317","GP_ID":"249402488","TLE_LINE0":"0 NAVSTAR 67 (USA 239)","TLE_LINE1":"1 38833U 12053A   24047.24418577  .00000028  00000-0  00000-0 0  9991","TLE_LINE2":"2 38833  53.5143 178.4514 0149297  54.9739 306.3861  2.00556538 82356"}]